<?xml version="1.0" encoding="UTF-8"?>
<gpx creator="Suunto Routeplanner" version="1.1"
  xsi:schemaLocation="http://www.topografix.com/GPX/1/1 http://www.topografix.com/GPX/1/1/gpx.xsd"
  xmlns="http://www.topografix.com/GPX/1/1"
  xmlns:xsi="http://www.w3.org/2001/XMLSchema-instance"
  xmlns:suunto-rp="http://www.suunto.com/routeplanner/gpx/1.0">
<metadata>
  <name>Suunto Route</name>
  <desc>Route created with Suunto Routeplanner</desc>
</metadata>

<!-- Route begin and end waypoints -->
<wpt lat="43.38212" lon="-8.331923"><name>Begin</name><desc>Auto-generated</desc><type>Begin</type></wpt>
<wpt lat="43.37941" lon="-8.337491"><name>End</name><desc>Auto-generated</desc><type>End</type></wpt>
<!-- Route points -->
<rte>
  <name>Suunto Route</name>
  <desc>Route created with Suunto Routeplanner</desc>
  <extensions><suunto-rp:waypointIndices>0,260</suunto-rp:waypointIndices></extensions>
  <rtept lat="43.38212" lon="-8.331923"><ele>20</ele></rtept>
  <rtept lat="43.382126" lon="-8.331866"><ele>20</ele></rtept>
  <rtept lat="43.382507" lon="-8.331686"><ele>20</ele></rtept>
  <rtept lat="43.382812" lon="-8.331566"><ele>19</ele></rtept>
  <rtept lat="43.382946" lon="-8.331488"><ele>19</ele></rtept>
  <rtept lat="43.38302" lon="-8.331398"><ele>20</ele></rtept>
  <rtept lat="43.383106" lon="-8.33111"><ele>20</ele></rtept>
  <rtept lat="43.383224" lon="-8.330686"><ele>21</ele></rtept>
  <rtept lat="43.383286" lon="-8.33056"><ele>22</ele></rtept>
  <rtept lat="43.383614" lon="-8.33033"><ele>24</ele></rtept>
  <rtept lat="43.383957" lon="-8.330061"><ele>27</ele></rtept>
  <rtept lat="43.384296" lon="-8.329812"><ele>30</ele></rtept>
  <rtept lat="43.38467" lon="-8.32959"><ele>32</ele></rtept>
  <rtept lat="43.38493" lon="-8.329495"><ele>34</ele></rtept>
  <rtept lat="43.385387" lon="-8.329463"><ele>37</ele></rtept>
  <rtept lat="43.38573" lon="-8.329349"><ele>38</ele></rtept>
  <rtept lat="43.38588" lon="-8.32933"><ele>38</ele></rtept>
  <rtept lat="43.386" lon="-8.32938"><ele>39</ele></rtept>
  <rtept lat="43.38605" lon="-8.329426"><ele>39</ele></rtept>
  <rtept lat="43.38605" lon="-8.329426"><ele>39</ele></rtept>
  <rtept lat="43.386276" lon="-8.329632"><ele>40</ele></rtept>
  <rtept lat="43.38648" lon="-8.329898"><ele>42</ele></rtept>
  <rtept lat="43.386616" lon="-8.330025"><ele>42</ele></rtept>
  <rtept lat="43.386826" lon="-8.330175"><ele>43</ele></rtept>
  <rtept lat="43.387077" lon="-8.33033"><ele>44</ele></rtept>
  <rtept lat="43.387383" lon="-8.330457"><ele>46</ele></rtept>
  <rtept lat="43.38769" lon="-8.330696"><ele>47</ele></rtept>
  <rtept lat="43.388035" lon="-8.331074"><ele>49</ele></rtept>
  <rtept lat="43.388405" lon="-8.331374"><ele>50</ele></rtept>
  <rtept lat="43.388702" lon="-8.331657"><ele>52</ele></rtept>
  <rtept lat="43.3889" lon="-8.331942"><ele>55</ele></rtept>
  <rtept lat="43.3889" lon="-8.331942"><ele>55</ele></rtept>
  <rtept lat="43.389214" lon="-8.332387"><ele>59</ele></rtept>
  <rtept lat="43.389435" lon="-8.332606"><ele>62</ele></rtept>
  <rtept lat="43.389637" lon="-8.332683"><ele>64</ele></rtept>
  <rtept lat="43.389957" lon="-8.332747"><ele>69</ele></rtept>
  <rtept lat="43.39043" lon="-8.332928"><ele>73</ele></rtept>
  <rtept lat="43.391136" lon="-8.333128"><ele>79</ele></rtept>
  <rtept lat="43.391273" lon="-8.333111"><ele>80</ele></rtept>
  <rtept lat="43.391273" lon="-8.333111"><ele>80</ele></rtept>
  <rtept lat="43.3913" lon="-8.333108"><ele>80</ele></rtept>
  <rtept lat="43.391403" lon="-8.332973"><ele>80</ele></rtept>
  <rtept lat="43.391617" lon="-8.332804"><ele>80</ele></rtept>
  <rtept lat="43.39204" lon="-8.332507"><ele>81</ele></rtept>
  <rtept lat="43.392296" lon="-8.332218"><ele>81</ele></rtept>
  <rtept lat="43.392395" lon="-8.332066"><ele>81</ele></rtept>
  <rtept lat="43.392483" lon="-8.331833"><ele>81</ele></rtept>
  <rtept lat="43.392555" lon="-8.331658"><ele>81</ele></rtept>
  <rtept lat="43.392838" lon="-8.331331"><ele>81</ele></rtept>
  <rtept lat="43.393345" lon="-8.330918"><ele>83</ele></rtept>
  <rtept lat="43.39364" lon="-8.330739"><ele>84</ele></rtept>
  <rtept lat="43.39364" lon="-8.330739"><ele>84</ele></rtept>
  <rtept lat="43.393684" lon="-8.33071"><ele>84</ele></rtept>
  <rtept lat="43.393673" lon="-8.330783"><ele>84</ele></rtept>
  <rtept lat="43.39379" lon="-8.331059"><ele>85</ele></rtept>
  <rtept lat="43.394016" lon="-8.331188"><ele>85</ele></rtept>
  <rtept lat="43.394337" lon="-8.331171"><ele>82</ele></rtept>
  <rtept lat="43.394463" lon="-8.330978"><ele>80</ele></rtept>
  <rtept lat="43.39455" lon="-8.331127"><ele>79</ele></rtept>
  <rtept lat="43.39473" lon="-8.331534"><ele>76</ele></rtept>
  <rtept lat="43.39473" lon="-8.331534"><ele>76</ele></rtept>
  <rtept lat="43.394863" lon="-8.331854"><ele>73</ele></rtept>
  <rtept lat="43.39513" lon="-8.332311"><ele>70</ele></rtept>
  <rtept lat="43.39573" lon="-8.332904"><ele>65</ele></rtept>
  <rtept lat="43.39589" lon="-8.333163"><ele>64</ele></rtept>
  <rtept lat="43.39602" lon="-8.333408"><ele>63</ele></rtept>
  <rtept lat="43.396194" lon="-8.333507"><ele>62</ele></rtept>
  <rtept lat="43.396416" lon="-8.333569"><ele>62</ele></rtept>
  <rtept lat="43.39651" lon="-8.333561"><ele>62</ele></rtept>
  <rtept lat="43.396435" lon="-8.3338"><ele>64</ele></rtept>
  <rtept lat="43.39635" lon="-8.333977"><ele>64</ele></rtept>
  <rtept lat="43.39629" lon="-8.334188"><ele>63</ele></rtept>
  <rtept lat="43.396282" lon="-8.334235"><ele>62</ele></rtept>
  <rtept lat="43.39629" lon="-8.33442"><ele>61</ele></rtept>
  <rtept lat="43.396317" lon="-8.334601"><ele>60</ele></rtept>
  <rtept lat="43.396366" lon="-8.334695"><ele>59</ele></rtept>
  <rtept lat="43.396366" lon="-8.334695"><ele>59</ele></rtept>
  <rtept lat="43.396385" lon="-8.334731"><ele>58</ele></rtept>
  <rtept lat="43.396458" lon="-8.334769"><ele>57</ele></rtept>
  <rtept lat="43.39648" lon="-8.334814"><ele>56</ele></rtept>
  <rtept lat="43.396484" lon="-8.334894"><ele>55</ele></rtept>
  <rtept lat="43.39648" lon="-8.335028"><ele>53</ele></rtept>
  <rtept lat="43.39649" lon="-8.335085"><ele>53</ele></rtept>
  <rtept lat="43.396534" lon="-8.335164"><ele>51</ele></rtept>
  <rtept lat="43.39663" lon="-8.335391"><ele>55</ele></rtept>
  <rtept lat="43.39666" lon="-8.335503"><ele>56</ele></rtept>
  <rtept lat="43.396683" lon="-8.335671"><ele>56</ele></rtept>
  <rtept lat="43.396706" lon="-8.335733"><ele>56</ele></rtept>
  <rtept lat="43.396923" lon="-8.336137"><ele>57</ele></rtept>
  <rtept lat="43.397015" lon="-8.336338"><ele>57</ele></rtept>
  <rtept lat="43.397156" lon="-8.336778"><ele>58</ele></rtept>
  <rtept lat="43.397186" lon="-8.336942"><ele>58</ele></rtept>
  <rtept lat="43.397186" lon="-8.337072"><ele>58</ele></rtept>
  <rtept lat="43.39718" lon="-8.337149"><ele>59</ele></rtept>
  <rtept lat="43.39712" lon="-8.337363"><ele>59</ele></rtept>
  <rtept lat="43.397118" lon="-8.337423"><ele>59</ele></rtept>
  <rtept lat="43.39714" lon="-8.337597"><ele>57</ele></rtept>
  <rtept lat="43.397137" lon="-8.337656"><ele>57</ele></rtept>
  <rtept lat="43.397118" lon="-8.337721"><ele>56</ele></rtept>
  <rtept lat="43.39683" lon="-8.338178"><ele>56</ele></rtept>
  <rtept lat="43.39682" lon="-8.338258"><ele>55</ele></rtept>
  <rtept lat="43.396828" lon="-8.338336"><ele>54</ele></rtept>
  <rtept lat="43.396927" lon="-8.338527"><ele>49</ele></rtept>
  <rtept lat="43.396946" lon="-8.338579"><ele>48</ele></rtept>
  <rtept lat="43.39699" lon="-8.338766"><ele>45</ele></rtept>
  <rtept lat="43.397022" lon="-8.338847"><ele>44</ele></rtept>
  <rtept lat="43.397083" lon="-8.338948"><ele>42</ele></rtept>
  <rtept lat="43.397083" lon="-8.338948"><ele>42</ele></rtept>
  <rtept lat="43.397182" lon="-8.339069"><ele>39</ele></rtept>
  <rtept lat="43.397247" lon="-8.339226"><ele>37</ele></rtept>
  <rtept lat="43.39734" lon="-8.339554"><ele>35</ele></rtept>
  <rtept lat="43.39735" lon="-8.339652"><ele>35</ele></rtept>
  <rtept lat="43.397346" lon="-8.339732"><ele>35</ele></rtept>
  <rtept lat="43.397285" lon="-8.340293"><ele>37</ele></rtept>
  <rtept lat="43.397285" lon="-8.340358"><ele>37</ele></rtept>
  <rtept lat="43.397293" lon="-8.340406"><ele>37</ele></rtept>
  <rtept lat="43.397335" lon="-8.3405"><ele>38</ele></rtept>
  <rtept lat="43.39739" lon="-8.340574"><ele>38</ele></rtept>
  <rtept lat="43.397457" lon="-8.340651"><ele>38</ele></rtept>
  <rtept lat="43.397606" lon="-8.340748"><ele>39</ele></rtept>
  <rtept lat="43.39764" lon="-8.340784"><ele>39</ele></rtept>
  <rtept lat="43.397655" lon="-8.340819"><ele>39</ele></rtept>
  <rtept lat="43.397663" lon="-8.340861"><ele>39</ele></rtept>
  <rtept lat="43.39764" lon="-8.341004"><ele>39</ele></rtept>
  <rtept lat="43.397602" lon="-8.34112"><ele>39</ele></rtept>
  <rtept lat="43.3975" lon="-8.341373"><ele>39</ele></rtept>
  <rtept lat="43.397423" lon="-8.34168"><ele>40</ele></rtept>
  <rtept lat="43.39739" lon="-8.341748"><ele>40</ele></rtept>
  <rtept lat="43.39721" lon="-8.341992"><ele>39</ele></rtept>
  <rtept lat="43.397034" lon="-8.342287"><ele>40</ele></rtept>
  <rtept lat="43.39698" lon="-8.342365"><ele>40</ele></rtept>
  <rtept lat="43.39686" lon="-8.342578"><ele>40</ele></rtept>
  <rtept lat="43.396748" lon="-8.342638"><ele>39</ele></rtept>
  <rtept lat="43.396706" lon="-8.342686"><ele>39</ele></rtept>
  <rtept lat="43.39654" lon="-8.342972"><ele>37</ele></rtept>
  <rtept lat="43.396317" lon="-8.343409"><ele>35</ele></rtept>
  <rtept lat="43.396233" lon="-8.343623"><ele>34</ele></rtept>
  <rtept lat="43.396175" lon="-8.34384"><ele>34</ele></rtept>
  <rtept lat="43.39613" lon="-8.344151"><ele>34</ele></rtept>
  <rtept lat="43.396072" lon="-8.344428"><ele>32</ele></rtept>
  <rtept lat="43.396065" lon="-8.344669"><ele>31</ele></rtept>
  <rtept lat="43.396107" lon="-8.345021"><ele>29</ele></rtept>
  <rtept lat="43.39617" lon="-8.345332"><ele>28</ele></rtept>
  <rtept lat="43.396233" lon="-8.345452"><ele>27</ele></rtept>
  <rtept lat="43.396328" lon="-8.345571"><ele>26</ele></rtept>
  <rtept lat="43.396404" lon="-8.345726"><ele>26</ele></rtept>
  <rtept lat="43.39641" lon="-8.345846"><ele>26</ele></rtept>
  <rtept lat="43.3964" lon="-8.346003"><ele>26</ele></rtept>
  <rtept lat="43.396355" lon="-8.346107"><ele>26</ele></rtept>
  <rtept lat="43.396355" lon="-8.346107"><ele>26</ele></rtept>
  <rtept lat="43.39632" lon="-8.346192"><ele>27</ele></rtept>
  <rtept lat="43.396046" lon="-8.346716"><ele>29</ele></rtept>
  <rtept lat="43.395874" lon="-8.347"><ele>30</ele></rtept>
  <rtept lat="43.395836" lon="-8.34715"><ele>31</ele></rtept>
  <rtept lat="43.39585" lon="-8.347445"><ele>32</ele></rtept>
  <rtept lat="43.395844" lon="-8.347684"><ele>33</ele></rtept>
  <rtept lat="43.39591" lon="-8.348154"><ele>34</ele></rtept>
  <rtept lat="43.395714" lon="-8.348661"><ele>35</ele></rtept>
  <rtept lat="43.39565" lon="-8.348939"><ele>35</ele></rtept>
  <rtept lat="43.395676" lon="-8.348995"><ele>35</ele></rtept>
  <rtept lat="43.395683" lon="-8.349079"><ele>35</ele></rtept>
  <rtept lat="43.395683" lon="-8.349132"><ele>35</ele></rtept>
  <rtept lat="43.3956" lon="-8.349046"><ele>35</ele></rtept>
  <rtept lat="43.395542" lon="-8.348963"><ele>36</ele></rtept>
  <rtept lat="43.39536" lon="-8.348818"><ele>36</ele></rtept>
  <rtept lat="43.395184" lon="-8.348724"><ele>36</ele></rtept>
  <rtept lat="43.394886" lon="-8.348542"><ele>36</ele></rtept>
  <rtept lat="43.394215" lon="-8.348177"><ele>34</ele></rtept>
  <rtept lat="43.394215" lon="-8.348177"><ele>34</ele></rtept>
  <rtept lat="43.394165" lon="-8.348153"><ele>34</ele></rtept>
  <rtept lat="43.39397" lon="-8.348102"><ele>34</ele></rtept>
  <rtept lat="43.393692" lon="-8.34807"><ele>34</ele></rtept>
  <rtept lat="43.393562" lon="-8.348045"><ele>34</ele></rtept>
  <rtept lat="43.393444" lon="-8.347957"><ele>34</ele></rtept>
  <rtept lat="43.39315" lon="-8.347539"><ele>34</ele></rtept>
  <rtept lat="43.393013" lon="-8.3473"><ele>34</ele></rtept>
  <rtept lat="43.392807" lon="-8.346887"><ele>34</ele></rtept>
  <rtept lat="43.392693" lon="-8.346627"><ele>34</ele></rtept>
  <rtept lat="43.392666" lon="-8.34646"><ele>34</ele></rtept>
  <rtept lat="43.392666" lon="-8.346214"><ele>34</ele></rtept>
  <rtept lat="43.392735" lon="-8.345905"><ele>34</ele></rtept>
  <rtept lat="43.392838" lon="-8.345658"><ele>34</ele></rtept>
  <rtept lat="43.393024" lon="-8.345382"><ele>35</ele></rtept>
  <rtept lat="43.39327" lon="-8.345134"><ele>37</ele></rtept>
  <rtept lat="43.393623" lon="-8.344677"><ele>40</ele></rtept>
  <rtept lat="43.39382" lon="-8.34439"><ele>40</ele></rtept>
  <rtept lat="43.394043" lon="-8.343759"><ele>41</ele></rtept>
  <rtept lat="43.394077" lon="-8.343462"><ele>41</ele></rtept>
  <rtept lat="43.394073" lon="-8.342558"><ele>42</ele></rtept>
  <rtept lat="43.394066" lon="-8.342317"><ele>42</ele></rtept>
  <rtept lat="43.394" lon="-8.342116"><ele>42</ele></rtept>
  <rtept lat="43.39387" lon="-8.342102"><ele>42</ele></rtept>
  <rtept lat="43.393753" lon="-8.342207"><ele>42</ele></rtept>
  <rtept lat="43.393513" lon="-8.342301"><ele>42</ele></rtept>
  <rtept lat="43.393513" lon="-8.342301"><ele>42</ele></rtept>
  <rtept lat="43.39341" lon="-8.34234"><ele>43</ele></rtept>
  <rtept lat="43.392834" lon="-8.342147"><ele>45</ele></rtept>
  <rtept lat="43.392616" lon="-8.342038"><ele>44</ele></rtept>
  <rtept lat="43.392483" lon="-8.341956"><ele>44</ele></rtept>
  <rtept lat="43.39206" lon="-8.341761"><ele>44</ele></rtept>
  <rtept lat="43.391876" lon="-8.341667"><ele>43</ele></rtept>
  <rtept lat="43.39178" lon="-8.341571"><ele>42</ele></rtept>
  <rtept lat="43.391712" lon="-8.341446"><ele>42</ele></rtept>
  <rtept lat="43.391552" lon="-8.341198"><ele>40</ele></rtept>
  <rtept lat="43.39137" lon="-8.341013"><ele>40</ele></rtept>
  <rtept lat="43.391113" lon="-8.340739"><ele>39</ele></rtept>
  <rtept lat="43.390984" lon="-8.340621"><ele>39</ele></rtept>
  <rtept lat="43.39087" lon="-8.340624"><ele>39</ele></rtept>
  <rtept lat="43.390392" lon="-8.340769"><ele>38</ele></rtept>
  <rtept lat="43.389927" lon="-8.34083"><ele>40</ele></rtept>
  <rtept lat="43.389675" lon="-8.340844"><ele>42</ele></rtept>
  <rtept lat="43.389412" lon="-8.340898"><ele>44</ele></rtept>
  <rtept lat="43.389008" lon="-8.340924"><ele>47</ele></rtept>
  <rtept lat="43.388763" lon="-8.340892"><ele>48</ele></rtept>
  <rtept lat="43.388622" lon="-8.340825"><ele>48</ele></rtept>
  <rtept lat="43.388622" lon="-8.340825"><ele>48</ele></rtept>
  <rtept lat="43.388256" lon="-8.34067"><ele>50</ele></rtept>
  <rtept lat="43.38799" lon="-8.340641"><ele>52</ele></rtept>
  <rtept lat="43.387768" lon="-8.340683"><ele>53</ele></rtept>
  <rtept lat="43.38752" lon="-8.340769"><ele>53</ele></rtept>
  <rtept lat="43.387295" lon="-8.340894"><ele>53</ele></rtept>
  <rtept lat="43.387184" lon="-8.341002"><ele>53</ele></rtept>
  <rtept lat="43.38702" lon="-8.34108"><ele>52</ele></rtept>
  <rtept lat="43.386513" lon="-8.341053"><ele>50</ele></rtept>
  <rtept lat="43.386395" lon="-8.341002"><ele>50</ele></rtept>
  <rtept lat="43.38634" lon="-8.340961"><ele>50</ele></rtept>
  <rtept lat="43.386368" lon="-8.340806"><ele>50</ele></rtept>
  <rtept lat="43.386345" lon="-8.340558"><ele>49</ele></rtept>
  <rtept lat="43.386196" lon="-8.340189"><ele>47</ele></rtept>
  <rtept lat="43.385983" lon="-8.339813"><ele>44</ele></rtept>
  <rtept lat="43.385803" lon="-8.339545"><ele>43</ele></rtept>
  <rtept lat="43.385548" lon="-8.339288"><ele>41</ele></rtept>
  <rtept lat="43.385307" lon="-8.339142"><ele>40</ele></rtept>
  <rtept lat="43.385" lon="-8.338996"><ele>38</ele></rtept>
  <rtept lat="43.38475" lon="-8.338944"><ele>37</ele></rtept>
  <rtept lat="43.384552" lon="-8.338973"><ele>36</ele></rtept>
  <rtept lat="43.38416" lon="-8.339064"><ele>33</ele></rtept>
  <rtept lat="43.383835" lon="-8.339154"><ele>30</ele></rtept>
  <rtept lat="43.3835" lon="-8.339261"><ele>27</ele></rtept>
  <rtept lat="43.38327" lon="-8.339315"><ele>25</ele></rtept>
  <rtept lat="43.383076" lon="-8.339291"><ele>23</ele></rtept>
  <rtept lat="43.383076" lon="-8.339291"><ele>23</ele></rtept>
  <rtept lat="43.383045" lon="-8.339287"><ele>23</ele></rtept>
  <rtept lat="43.382854" lon="-8.339198"><ele>22</ele></rtept>
  <rtept lat="43.38229" lon="-8.338824"><ele>19</ele></rtept>
  <rtept lat="43.38188" lon="-8.338541"><ele>18</ele></rtept>
  <rtept lat="43.381664" lon="-8.338408"><ele>16</ele></rtept>
  <rtept lat="43.38148" lon="-8.338263"><ele>14</ele></rtept>
  <rtept lat="43.381348" lon="-8.338193"><ele>13</ele></rtept>
  <rtept lat="43.380955" lon="-8.337962"><ele>13</ele></rtept>
  <rtept lat="43.38071" lon="-8.338043"><ele>13</ele></rtept>
  <rtept lat="43.380596" lon="-8.338041"><ele>13</ele></rtept>
  <rtept lat="43.380386" lon="-8.337981"><ele>12</ele></rtept>
  <rtept lat="43.380257" lon="-8.337928"><ele>11</ele></rtept>
  <rtept lat="43.380123" lon="-8.337847"><ele>11</ele></rtept>
  <rtept lat="43.380043" lon="-8.337848"><ele>11</ele></rtept>
  <rtept lat="43.37965" lon="-8.337715"><ele>10</ele></rtept>
  <rtept lat="43.379616" lon="-8.337534"><ele>10</ele></rtept>
  <rtept lat="43.379566" lon="-8.337411"><ele>11</ele></rtept>
  <rtept lat="43.37948" lon="-8.337475"><ele>10</ele></rtept>
  <rtept lat="43.37941" lon="-8.337491"><ele>10</ele></rtept>
</rte>
</gpx>